STARLINK-31325          
1 59165U 24044P   26068.79879898 -.00001795  00000+0 -55766-4 0  9993
2 59165  42.9967 106.2959 0000394 343.0540  17.0298 15.27565632113589
NUSAT-50 (NANCY ROMAN)  
1 60493U 24149AB  26068.80227738  .00012094  00000+0  42252-3 0  9994
2 60493  97.3817 150.7693 0002523 238.0469 122.0527 15.29713355 86930
